0 COSMOS 1691 DEB
1 16266U 85094K   13284.11452017  .00000207  00000-0  10582-2 0  8183
2 16266 082.6045 331.6854 0009406 157.2000 231.0127 12.65189128291755
0 COSMOS 1691 DEB
1 16266U 85094K   13286.17671410  .00000207  00000-0  10568-2 0  8196
2 16266 082.6041 330.3672 0009303 153.5312 262.6170 12.65189652292016
0 COSMOS 1691 DEB
1 16266U 85094K   13288.47227208  .00000234  00000-0  12002-2 0  8200
2 16266 082.6035 328.8997 0009232 148.9990 277.4585 12.65190787292309
0 COSMOS 1691 DEB
1 16266U 85094K   13290.54768066  .00000217  00000-0  11070-2 0  8219
2 16266 082.6032 327.5726 0009157 144.9020 009.6629 12.65191890292566
0 COSMOS 1691 DEB
1 16266U 85094K   13292.83416818  .00000219  00000-0  11222-2 0  8220
2 16266 082.6032 326.1103 0009096 140.2026 343.3970 12.65192679292852
0 COSMOS 1691 DEB
1 16266U 85094K   13295.02759566  .00000208  00000-0  10584-2 0  8233
2 16266 082.6031 324.7075 0009024 135.6443 253.3484 12.65193457293132
